CZ-4B R/B               
1 43656U 18081B   25354.43265346  .00000134  00000+0  56460-4 0  9996
2 43656  99.3759 253.0611 0205774  61.7359 300.4423 14.31762638373721
CFOSAT                  
1 43662U 18083A   25354.59871718  .00002626  00000+0  13875-3 0  9998
2 43662  97.3615 359.3801 0001960 121.8833 238.2592 15.16352159395371
TEN-KOH                 
1 43677U 18084G   25354.44025196  .00002119  00000+0  16721-3 0  9990
2 43677  98.0745 174.3726 0008942   3.8908 356.2383 15.01862448389327
DIWATA-2B               
1 43678U 18084H   25354.59316925  .00002229  00000+0  18692-3 0  9991
2 43678  98.1022 178.3717 0007618  26.8147 333.3467 14.99475480389444
STARS-AO                
1 43679U 18084J   25354.51622317  .00005065  00000+0  28015-3 0  9990
2 43679  98.0628 192.5854 0003446  63.3648 296.7934 15.14365500390401
AUTCUBE 2               
1 43681U 18084K   25354.49886249  .00003572  00000+0  23418-3 0  9999
2 43681  98.0780 186.2392 0008296 291.2106  68.8234 15.08375063389978
METOP-C                 
1 43689U 18087A   25354.56445471  .00000094  00000+0  62956-4 0  9993
2 43689  98.6918  52.2138 0000869  25.8359 334.2861 14.21487156369452
ES'HAIL 2               
1 43700U 18090A   25354.55634155  .00000168  00000+0  00000+0 0  9998
2 43700   0.0139  52.4371 0000983 239.7728  23.2610  1.00272302 25883
MOHAMMED VI-B           
1 43717U 18095A   25354.60933998  .00000496  00000+0  77373-4 0  9990
2 43717  97.9568  64.5100 0001188  81.7539 278.3806 14.77096170381823
HYSIS                   
1 43719U 18096A   25354.62885641  .00001526  00000+0  21530-3 0  9994
2 43719  98.0095  57.5686 0001070  51.9002 308.2305 14.78667771381039
COSMOS 2530 (RODNIK-S *)
1 43751U 18097A   25354.59148124  .00000068  00000+0  41533-3 0  9990
2 43751  82.5151 333.1470 0020815  65.9429 294.3825 12.42874559320102
COSMOS 2531 (RODNIK-S *)
1 43752U 18097B   25354.61823508  .00000025  00000+0  10803-3 0  9999
2 43752  82.5196 334.1281 0017928  83.6845 276.6276 12.42905636320129
COSMOS 2532 (RODNIK-S *)
1 43753U 18097C   25354.56552117 -.00000052  00000+0 -44697-3 0  9999
2 43753  82.5140 333.0283 0019286  85.8379 274.4905 12.42901416320086
MINXSS-2                
1 43758U 18099A   25354.18817808  .00017285  00000+0  51228-3 0  9997
2 43758  97.4793  61.6558 0009486 184.0807 176.0360 15.34873749386566
SIRION PATHFINDER-2     
1 43759U 18099B   25354.08971718  .00004509  00000+0  26309-3 0  9995
2 43759  97.4532  42.3898 0008803 190.5294 169.5754 15.12410713385539
AISTECHSAT 2            
1 43768U 18099L   25354.09209729  .00004575  00000+0  26190-3 0  9993
2 43768  97.4575  41.0524 0004637 182.7066 177.4141 15.13114845385175
FOX-1CLIFF (AO-95)      
1 43770U 18099N   25354.15650998  .00007795  00000+0  34369-3 0  9995
2 43770  97.4667  50.3845 0008230 255.7032 104.3290 15.22040526385949
2018-099Q               
1 43772U 18099Q   25354.41972732  .00037922  00000+0  78968-3 0  9997
2 43772  97.4480  62.1456 0002967 124.8269 235.3259 15.45505361386761
RANGE-A                 
1 43773U 18099R   25354.08938465  .00003507  00000+0  21114-3 0  9999
2 43773  97.4236  36.8761 0009395 243.0936 116.9335 15.11415860385423
HIBER-2                 
1 43774U 18099S   25354.15187313  .00161018  00000+0  12953-2 0  9998
2 43774  97.4608  70.0738 0001870 188.7367 171.3863 15.70449281387145
VESTA-1                 
1 43781U 18099Z   25354.14519585  .00290505  00000+0  14534-2 0  9996
2 43781  97.4264  63.5344 0002717 260.5955  99.5005 15.81025015387061
SNUSAT-2                
1 43782U 18099AA  25354.10586059  .00006292  00000+0  30882-3 0  9996
2 43782  97.4341  45.3862 0010654 194.9181 165.1740 15.18394206385820
SNUGLITE                
1 43784U 18099AC  25354.60183002  .00007280  00000+0  31762-3 0  9990
2 43784  97.4154  45.9490 0002987 170.9424 189.1867 15.22444313386109
ITASAT                  
1 43786U 18099AE  25354.61787385  .00005124  00000+0  26841-3 0  9994
2 43786  97.4312  44.7652 0011928 252.8514 107.1413 15.16178388385823
EAGLET-I                
1 43790U 18099AJ  25354.12110534  .00002725  00000+0  16598-3 0  9993
2 43790  97.4512  43.4690 0010108 240.4819 119.5404 15.11178512385278
ESEO                    
1 43792U 18099AL  25354.00262383  .00002142  00000+0  16112-3 0  9997
2 43792  97.4223  33.8893 0011543 221.2124 138.8232 15.03509494384873
THEA                    
1 43796U 18099AQ  25354.13623022  .00011870  00000+0  43642-3 0  9992
2 43796  97.4707  57.7558 0008236 192.7738 167.3294 15.28018491385285
ASTROCAST 0.1           
1 43798U 18099AS  25354.47494511  .00018493  00000+0  50181-3 0  9994
2 43798  97.4621  63.8236 0007005 138.4202 221.7577 15.37639118386868
JY1SAT (JO-97)          
1 43803U 18099AX  25354.61385323  .00010035  00000+0  38029-3 0  9998
2 43803  97.4409  52.4053 0006490 172.6114 187.5222 15.27070632386314
SUOMI-100               
1 43804U 18099AY  25354.14364145  .00007825  00000+0  33049-3 0  9996
2 43804  97.4476  50.5471 0010830 184.7658 175.3478 15.23479607386119
AL-FARABI 2             
1 43805U 18099AZ  25354.44363748  .00045532  00000+0  78528-3 0  9996
2 43805  97.4295  61.9145 0004591 142.2714 217.8861 15.50893200387019
CENTAURI-1              
1 43809U 18099BD  25354.11845751  .00003784  00000+0  21149-3 0  9993
2 43809  97.4505  44.6907 0013748 225.2823 134.7290 15.14014370385382
GLOBAL-2                
1 43812U 18099BG  25354.58944118  .00002741  00000+0  18513-3 0  9998
2 43812  97.3810  33.4354 0007315  56.9049 303.2880 15.07360434384999
SEAHAWK-1               
1 43820U 18099BQ  25354.40489251  .00006316  00000+0  30355-3 0  9990
2 43820  97.4246  44.7878 0008145 207.0090 153.0722 15.19140851385354
SAUDISAT 5A             
1 43831U 18102A   25354.59558321  .00004203  00000+0  16726-3 0  9991
2 43831  97.3344  54.6353 0011401  52.1049 308.1219 15.25745605388424
SAUDISAT 5B             
1 43833U 18102C   25354.58426638  .00004023  00000+0  15852-3 0  9996
2 43833  97.3439  57.3769 0012123  54.1954 306.0410 15.26094339388535
2018-102D               
1 43834U 18102D   25354.60498225  .00021510  00000+0  39304-3 0  9999
2 43834  97.3630  73.1863 0006065  11.1883 348.9502 15.49392832389455
ISAT                    
1 43879U 18111D   25354.26399705  .00028944  00000+0  67154-3 0  9995
2 43879  97.5920 274.2660 0004110 208.0004 152.1023 15.42345429383403
UWE-4                   
1 43880U 18111E   25354.26248099  .00017652  00000+0  52555-3 0  9999
2 43880  97.5867 270.9966 0007323 241.8083 118.2420 15.34745186383238
D-STAR ONE (SPARROW)    
1 43881U 18111F   25354.30212165  .00031267  00000+0  67027-3 0  9998
2 43881  97.6104 278.1067 0001859 280.1720  79.9318 15.44694302383534
JILIN-1 09              
1 43943U 19005B   25354.53107607  .00003906  00000+0  19279-3 0  9994
2 43943  97.4789  86.2898 0002879  25.7434 334.3942 15.18474255382015
JILIN-1 10              
1 43946U 19005E   25354.52976111  .00004653  00000+0  20061-3 0  9991
2 43946  97.4808  88.7170 0008495 178.2707 181.8560 15.23028773382092
EGYPTSAT-A (MISRSAT-A)  
1 44047U 19008A   25354.60822801  .00000657  00000+0  11154-3 0  9995
2 44047  97.9986  56.9416 0001783  92.9415 267.1997 14.72409269366964
EMISAT                  
1 44078U 19018A   25354.60496248  .00000388  00000+0  12711-3 0  9993
2 44078  98.4929  49.1587 0019566  38.3901 321.8678 14.43634100354295
JILIN-1 GAOFEN 3A       
1 44312U 19032C   25354.56228859  .00007590  00000+0  28483-3 0  9991
2 44312  44.9754 256.6807 0005653  22.7615 337.3517 15.27791197360473
WT 1A                   
1 44315U 19032F   25354.59918343  .00047383  00000+0  64432-3 0  9999
2 44315  44.9783 175.0989 0005390 213.0100 147.0458 15.56885080361462
WT 1B                   
1 44316U 19032G   25354.58194028  .00008162  00000+0  35621-3 0  9995
2 44316  44.9783 312.7388 0010748 319.7798  40.2287 15.22585325359818
PROX-1                  
1 44339U 19036A   25354.03083144  .00009161  00000+0  10086-2 0  9997
2 44339  23.9949 226.4753 0006528 123.2474 236.8651 14.85360402346753
NPSAT1                  
1 44340U 19036B   25354.54328496  .00004412  00000+0  64605-3 0  9998
2 44340  24.0000 299.3854 0007537 356.7128   3.3317 14.72252794346112
FORMOSAT 7-3            
1 44343U 19036E   25354.24954573  .00004262  00000+0  24894-3 0  9998
2 44343  24.0006 328.5211 0000468 318.0716  41.9751 15.07930835356189
FORMOSAT 7-1            
1 44349U 19036L   25354.55950210  .00002450  00000+0  17488-3 0  9990
2 44349  23.9960 156.7847 0001316  51.6517 308.4102 14.98470277357865
FORMOSAT 7-4            
1 44350U 19036M   25353.98209013  .00002479  00000+0  17725-3 0  9991
2 44350  23.9970 222.7871 0001249  36.5698 323.4888 14.98464145357197
FORMOSAT 7-2            
1 44351U 19036N   25354.47072914  .00002752  00000+0  19953-3 0  9994
2 44351  23.9988 273.7999 0001098  48.2264 311.8331 14.98469374356782
FORMOSAT 7-6            
1 44353U 19036Q   25354.60431758  .00002570  00000+0  18470-3 0  9997
2 44353  23.9980  93.7183 0001798  66.0847 293.9842 14.98457980355037
FORMOSAT 7-5            
1 44358U 19036V   25354.44854565  .00002872  00000+0  20941-3 0  9990
2 44358  24.0004  33.5175 0001113  34.7924 325.2650 14.98457323355546
METEOR-M2 2             
1 44387U 19038A   25354.60481307 -.00000185  00000+0 -60515-4 0  9991
2 44387  98.8971 334.4298 0001606 131.5665 228.5651 14.24293733335876
COSMOS 2535             
1 44421U 19039A   25354.57936538  .00001029  00000+0  10839-3 0  9997
2 44421  97.5982  24.4250 0010013  88.2811 271.9555 14.91406797350018
GLOBAL-4                
1 44499U 19054E   25353.94669284  .00017547  00000+0  32267-3 0  9991
2 44499  45.0069 178.3582 0008290 225.0288 134.9932 15.48994318352436
ZY-1 02D                
1 44528U 19059A   25354.62536940  .00000310  00000+0  12249-3 0  9995
2 44528  98.3465  57.2180 0000770   2.9093 357.2098 14.35436957328723
